start=new Date('2023-03-21T00:00:00.000Z').valueOf();
sats=[{"DECAY_DATE":null,"COUNTRY_CODE":"US","OBJECT_ID":"2021-024Q","SEMIMAJOR_AXIS":"6925.331","MEAN_ANOMALY":"252.1518","EPOCH":"2023-03-20T17:29:38.508288","MEAN_ELEMENT_THEORY":"SGP4","TLE_LINE2":"2 47991  53.0516  92.2048 0001406 107.9624 252.1518 15.06405575112070","PERIOD":"95.592","REF_FRAME":"TEME","APOAPSIS":"548.170","ECCENTRICITY":"0.00014060","RA_OF_ASC_NODE":"92.2048","INCLINATION":"53.0516","OBJECT_NAME":"STARLINK-2279","PERIAPSIS":"546.223","FILE":"3866115","CENTER_NAME":"EARTH","GP_ID":"228547298","REV_AT_EPOCH":"11207","TIME_SYSTEM":"UTC","ELEMENT_SET_NO":"999","MEAN_MOTION_DDOT":"0.0000000000000","BSTAR":"0.00128770000000","CLASSIFICATION_TYPE":"U","MEAN_MOTION_DOT":"0.00018954","SITE":"AFETR","NORAD_CAT_ID":"47991","RCS_SIZE":"LARGE","MEAN_MOTION":"15.06405575","TLE_LINE1":"1 47991U 21024Q   23079.72891792  .00018954  00000-0  12877-2 0  9999","EPHEMERIS_TYPE":"0","LAUNCH_DATE":"2021-03-24","ARG_OF_PERICENTER":"107.9624","OBJECT_TYPE":"PAYLOAD"},{"FILE":"3866115","PERIAPSIS":"546.116","OBJECT_NAME":"STARLINK-2229","INCLINATION":"53.0516","ECCENTRICITY":"0.00015890","APOAPSIS":"548.317","RA_OF_ASC_NODE":"87.1871","REF_FRAME":"TEME","PERIOD":"95.592","TLE_LINE2":"2 47992  53.0516  87.1871 0001589  81.9910 278.1259 15.06399162112107","MEAN_ELEMENT_THEORY":"SGP4","MEAN_ANOMALY":"278.1259","EPOCH":"2023-03-20T17:59:30.902208","SEMIMAJOR_AXIS":"6925.351","OBJECT_ID":"2021-024R","COUNTRY_CODE":"US","DECAY_DATE":null,"OBJECT_TYPE":"PAYLOAD","ARG_OF_PERICENTER":"81.9910","LAUNCH_DATE":"2021-03-24","EPHEMERIS_TYPE":"0","TLE_LINE1":"1 47992U 21024R   23079.74966322  .00015941  00000-0  10867-2 0  9994","MEAN_MOTION":"15.06399162","RCS_SIZE":"LARGE","NORAD_CAT_ID":"47992","SITE":"AFETR","MEAN_MOTION_DOT":"0.00015941","ELEMENT_SET_NO":"999","MEAN_MOTION_DDOT":"0.0000000000000","CLASSIFICATION_TYPE":"U","BSTAR":"0.00108670000000","TIME_SYSTEM":"UTC","REV_AT_EPOCH":"11210","GP_ID":"228546051","CENTER_NAME":"EARTH"},{"COUNTRY_CODE":"US","DECAY_DATE":null,"MEAN_ELEMENT_THEORY":"SGP4","MEAN_ANOMALY":"253.2857","EPOCH":"2023-03-20T19:45:38.738592","SEMIMAJOR_AXIS":"6925.297","OBJECT_ID":"2021-024S","INCLINATION":"53.0530","ECCENTRICITY":"0.00015350","APOAPSIS":"548.225","RA_OF_ASC_NODE":"126.7704","REF_FRAME":"TEME","TLE_LINE2":"2 47993  53.0530 126.7704 0001535 106.8301 253.2857 15.06416955111603","PERIOD":"95.591","FILE":"3866115","PERIAPSIS":"546.099","OBJECT_NAME":"STARLINK-2273","CENTER_NAME":"EARTH","MEAN_MOTION_DDOT":"0.0000000000000","CLASSIFICATION_TYPE":"U","ELEMENT_SET_NO":"999","BSTAR":"0.00128580000000","TIME_SYSTEM":"UTC","REV_AT_EPOCH":"11160","GP_ID":"228545801","RCS_SIZE":"LARGE","NORAD_CAT_ID":"47993","SITE":"AFETR","MEAN_MOTION_DOT":"0.00018931","OBJECT_TYPE":"PAYLOAD","ARG_OF_PERICENTER":"106.8301","LAUNCH_DATE":"2021-03-24","EPHEMERIS_TYPE":"0","TLE_LINE1":"1 47993U 21024S   23079.82336503  .00018931  00000-0  12858-2 0  9990","MEAN_MOTION":"15.06416955"},{"CENTER_NAME":"EARTH","TIME_SYSTEM":"UTC","REV_AT_EPOCH":"11128","GP_ID":"228514752","BSTAR":"0.00153030000000","MEAN_MOTION_DDOT":"0.0000000000000","ELEMENT_SET_NO":"999","CLASSIFICATION_TYPE":"U","MEAN_MOTION_DOT":"0.00022576","SITE":"AFETR","RCS_SIZE":"LARGE","NORAD_CAT_ID":"47994","EPHEMERIS_TYPE":"0","MEAN_MOTION":"15.06383967","TLE_LINE1":"1 47994U 21024T   23079.49579248  .00022576  00000-0  15303-2 0  9997","ARG_OF_PERICENTER":"123.4118","LAUNCH_DATE":"2021-03-24","OBJECT_TYPE":"PAYLOAD","DECAY_DATE":null,"COUNTRY_CODE":"US","SEMIMAJOR_AXIS":"6925.398","OBJECT_ID":"2021-024T","MEAN_ELEMENT_THEORY":"SGP4","MEAN_ANOMALY":"236.6936","EPOCH":"2023-03-20T11:53:56.470272","TLE_LINE2":"2 47994  53.0523 143.2435 0000676 123.4118 236.6936 15.06383967111280","PERIOD":"95.593","INCLINATION":"53.0523","REF_FRAME":"TEME","RA_OF_ASC_NODE":"143.2435","APOAPSIS":"547.731","ECCENTRICITY":"0.00006760","OBJECT_NAME":"STARLINK-2290","FILE":"3865912","PERIAPSIS":"546.795"},{"NORAD_CAT_ID":"47995","RCS_SIZE":"LARGE","SITE":"AFETR","MEAN_MOTION_DOT":"0.00019070","OBJECT_TYPE":"PAYLOAD","ARG_OF_PERICENTER":"108.5497","LAUNCH_DATE":"2021-03-24","EPHEMERIS_TYPE":"0","TLE_LINE1":"1 47995U 21024U   23079.57092310  .00019070  00000-0  12956-2 0  9993","MEAN_MOTION":"15.06401295","CENTER_NAME":"EARTH","CLASSIFICATION_TYPE":"U","MEAN_MOTION_DDOT":"0.0000000000000","BSTAR":"0.00129560000000","ELEMENT_SET_NO":"999","TIME_SYSTEM":"UTC","GP_ID":"228546798","REV_AT_EPOCH":"11179","INCLINATION":"53.0538","APOAPSIS":"548.106","ECCENTRICITY":"0.00012940","RA_OF_ASC_NODE":"108.2262","REF_FRAME":"TEME","PERIOD":"95.592","TLE_LINE2":"2 47995  53.0538 108.2262 0001294 108.5497 251.5632 15.06401295111797","FILE":"3866115","PERIAPSIS":"546.313","OBJECT_NAME":"STARLINK-2309","COUNTRY_CODE":"US","DECAY_DATE":null,"MEAN_ELEMENT_THEORY":"SGP4","MEAN_ANOMALY":"251.5632","EPOCH":"2023-03-20T13:42:07.755840","SEMIMAJOR_AXIS":"6925.345","OBJECT_ID":"2021-024U"},{"OBJECT_TYPE":"PAYLOAD","ARG_OF_PERICENTER":"73.4154","LAUNCH_DATE":"2021-03-24","TLE_LINE1":"1 47996U 21024V   23079.28112473  .00030060  00000-0  20288-2 0  9994","MEAN_MOTION":"15.06391454","EPHEMERIS_TYPE":"0","NORAD_CAT_ID":"47996","RCS_SIZE":"LARGE","SITE":"AFETR","MEAN_MOTION_DOT":"0.00030060","MEAN_MOTION_DDOT":"0.0000000000000","BSTAR":"0.00202880000000","CLASSIFICATION_TYPE":"U","ELEMENT_SET_NO":"999","GP_ID":"228515749","REV_AT_EPOCH":"11285","TIME_SYSTEM":"UTC","CENTER_NAME":"EARTH","PERIAPSIS":"546.202","FILE":"3865912","OBJECT_NAME":"STARLINK-2260","APOAPSIS":"548.277","RA_OF_ASC_NODE":"34.5083","ECCENTRICITY":"0.00014980","REF_FRAME":"TEME","INCLINATION":"53.0547","TLE_LINE2":"2 47996  53.0547  34.5083 0001498  73.4154 286.7000 15.06391454112858","PERIOD":"95.593","EPOCH":"2023-03-20T06:44:49.176672","MEAN_ANOMALY":"286.7000","MEAN_ELEMENT_THEORY":"SGP4","OBJECT_ID":"2021-024V","SEMIMAJOR_AXIS":"6925.375","COUNTRY_CODE":"US","DECAY_DATE":null},{"SEMIMAJOR_AXIS":"6925.415","OBJECT_ID":"2021-024W","MEAN_ELEMENT_THEORY":"SGP4","EPOCH":"2023-03-20T13:02:55.910688","MEAN_ANOMALY":"251.4769","DECAY_DATE":null,"COUNTRY_CODE":"US","OBJECT_NAME":"STARLINK-2266","FILE":"3866115","PERIAPSIS":"546.280","TLE_LINE2":"2 47997  53.0543 143.0295 0001443 108.6377 251.4769 15.06378443111352","PERIOD":"95.594","INCLINATION":"53.0543","REF_FRAME":"TEME","APOAPSIS":"548.279","RA_OF_ASC_NODE":"143.0295","ECCENTRICITY":"0.00014430","TIME_SYSTEM":"UTC","GP_ID":"228546302","REV_AT_EPOCH":"11135","ELEMENT_SET_NO":"999","MEAN_MOTION_DDOT":"0.0000000000000","CLASSIFICATION_TYPE":"U","BSTAR":"0.00152910000000","CENTER_NAME":"EARTH","EPHEMERIS_TYPE":"0","MEAN_MOTION":"15.06378443","TLE_LINE1":"1 47997U 21024W   23079.54370267  .00022554  00000-0  15291-2 0  9998","ARG_OF_PERICENTER":"108.6377","LAUNCH_DATE":"2021-03-24","OBJECT_TYPE":"PAYLOAD","MEAN_MOTION_DOT":"0.00022554","SITE":"AFETR","RCS_SIZE":"LARGE","NORAD_CAT_ID":"47997"},{"TLE_LINE2":"2 47998  53.0508 117.0408 0001535  79.5260 280.5902 15.06399783111688","PERIOD":"95.592","REF_FRAME":"TEME","APOAPSIS":"548.277","RA_OF_ASC_NODE":"117.0408","ECCENTRICITY":"0.00015350","INCLINATION":"53.0508","OBJECT_NAME":"STARLINK-2296","PERIAPSIS":"546.151","FILE":"3866115","DECAY_DATE":null,"COUNTRY_CODE":"US","OBJECT_ID":"2021-024X","SEMIMAJOR_AXIS":"6925.349","EPOCH":"2023-03-20T19:36:24.244992","MEAN_ANOMALY":"280.5902","MEAN_ELEMENT_THEORY":"SGP4","MEAN_MOTION_DOT":"0.00023742","SITE":"AFETR","NORAD_CAT_ID":"47998","RCS_SIZE":"LARGE","MEAN_MOTION":"15.06399783","TLE_LINE1":"1 47998U 21024X   23079.81694728  .00023742  00000-0  16074-2 0  9990","EPHEMERIS_TYPE":"0","ARG_OF_PERICENTER":"79.5260","LAUNCH_DATE":"2021-03-24","OBJECT_TYPE":"PAYLOAD","CENTER_NAME":"EARTH","REV_AT_EPOCH":"11168","GP_ID":"228546553","TIME_SYSTEM":"UTC","ELEMENT_SET_NO":"999","MEAN_MOTION_DDOT":"0.0000000000000","CLASSIFICATION_TYPE":"U","BSTAR":"0.00160740000000"},{"DECAY_DATE":null,"COUNTRY_CODE":"US","OBJECT_ID":"2021-024Y","SEMIMAJOR_AXIS":"6925.360","MEAN_ANOMALY":"261.1626","EPOCH":"2023-03-20T07:15:53.799264","MEAN_ELEMENT_THEORY":"SGP4","TLE_LINE2":"2 47999  53.0549  89.1111 0001765  98.9563 261.1626 15.06396380111554","PERIOD":"95.592","REF_FRAME":"TEME","APOAPSIS":"548.447","ECCENTRICITY":"0.00017650","RA_OF_ASC_NODE":"89.1111","INCLINATION":"53.0549","OBJECT_NAME":"STARLINK-2218","PERIAPSIS":"546.002","FILE":"3865594","CENTER_NAME":"EARTH","REV_AT_EPOCH":"11155","GP_ID":"228486546","TIME_SYSTEM":"UTC","MEAN_MOTION_DDOT":"0.0000000000000","CLASSIFICATION_TYPE":"U","BSTAR":"-0.00015238000000","ELEMENT_SET_NO":"999","MEAN_MOTION_DOT":"-0.00002550","SITE":"AFETR","NORAD_CAT_ID":"47999","RCS_SIZE":"LARGE","MEAN_MOTION":"15.06396380","TLE_LINE1":"1 47999U 21024Y   23079.30270601 -.00002550  00000-0 -15238-3 0  9993","EPHEMERIS_TYPE":"0","ARG_OF_PERICENTER":"98.9563","LAUNCH_DATE":"2021-03-24","OBJECT_TYPE":"PAYLOAD"},{"PERIAPSIS":"546.232","FILE":"3866115","OBJECT_NAME":"STARLINK-2270","REF_FRAME":"TEME","RA_OF_ASC_NODE":"72.5367","APOAPSIS":"548.169","ECCENTRICITY":"0.00013990","INCLINATION":"53.0519","TLE_LINE2":"2 48000  53.0519  72.5367 0001399  82.9383 277.1765 15.06404263112305","PERIOD":"95.592","MEAN_ANOMALY":"277.1765","EPOCH":"2023-03-20T16:44:32.926848","MEAN_ELEMENT_THEORY":"SGP4","OBJECT_ID":"2021-024Z","SEMIMAJOR_AXIS":"6925.335","COUNTRY_CODE":"US","DECAY_DATE":null,"LAUNCH_DATE":"2021-03-24","ARG_OF_PERICENTER":"82.9383","OBJECT_TYPE":"PAYLOAD","MEAN_MOTION":"15.06404263","TLE_LINE1":"1 48000U 21024Z   23079.69760332  .00020458  00000-0  13882-2 0  9991","EPHEMERIS_TYPE":"0","NORAD_CAT_ID":"48000","RCS_SIZE":"LARGE","MEAN_MOTION_DOT":"0.00020458","SITE":"AFETR","MEAN_MOTION_DDOT":"0.0000000000000","BSTAR":"0.00138820000000","CLASSIFICATION_TYPE":"U","ELEMENT_SET_NO":"999","REV_AT_EPOCH":"11230","GP_ID":"228546052","TIME_SYSTEM":"UTC","CENTER_NAME":"EARTH"}];
